[{"OBJECT_NAME":"GEESAT-4 06","OBJECT_ID":"2025-170F","EPOCH":"2026-03-09T22:38:42.354528","MEAN_MOTION":14.83615146,"ECCENTRICITY":0.00188872,"INCLINATION":49.9829,"RA_OF_ASC_NODE":274.2895,"ARG_OF_PERICENTER":19.9102,"MEAN_ANOMALY":340.2569,"EPHEMERIS_TYPE":0,"CLASSIFICATION_TYPE":"U","NORAD_CAT_ID":65124,"ELEMENT_SET_NO":999,"REV_AT_EPOCH":3169,"BSTAR":0.00034907965,"MEAN_MOTION_DOT":2.689e-5,"MEAN_MOTION_DDOT":0},{"OBJECT_NAME":"SL-14 R\/B","OBJECT_ID":"1983-122B","EPOCH":"2026-03-09T19:33:20.530944","MEAN_MOTION":14.85861842,"ECCENTRICITY":0.00180897,"INCLINATION":82.5257,"RA_OF_ASC_NODE":329.5422,"ARG_OF_PERICENTER":79.8346,"MEAN_ANOMALY":280.491,"EPHEMERIS_TYPE":0,"CLASSIFICATION_TYPE":"U","NORAD_CAT_ID":14552,"ELEMENT_SET_NO":999,"REV_AT_EPOCH":26085,"BSTAR":6.9629297e-5,"MEAN_MOTION_DOT":6.32e-6,"MEAN_MOTION_DDOT":0}]
